[{"OBJECT_NAME":"STARLINK-3928","OBJECT_ID":"2022-052J","EPOCH":"2026-03-09T20:25:13.160928","MEAN_MOTION":15.08841716,"ECCENTRICITY":0.00014201,"INCLINATION":53.2167,"RA_OF_ASC_NODE":278.4,"ARG_OF_PERICENTER":91.3146,"MEAN_ANOMALY":268.8009,"EPHEMERIS_TYPE":0,"CLASSIFICATION_TYPE":"U","NORAD_CAT_ID":52606,"ELEMENT_SET_NO":999,"REV_AT_EPOCH":21088,"BSTAR":6.179933e-6,"MEAN_MOTION_DOT":-1.9e-6,"MEAN_MOTION_DDOT":0},{"OBJECT_NAME":"CZ-6A DEB","OBJECT_ID":"2022-151AEC","EPOCH":"2026-03-09T16:07:43.414464","MEAN_MOTION":15.01082395,"ECCENTRICITY":0.0040922,"INCLINATION":98.632,"RA_OF_ASC_NODE":144.2747,"ARG_OF_PERICENTER":190.1613,"MEAN_ANOMALY":169.8786,"EPHEMERIS_TYPE":0,"CLASSIFICATION_TYPE":"U","NORAD_CAT_ID":56604,"ELEMENT_SET_NO":999,"REV_AT_EPOCH":16341,"BSTAR":0.005850488,"MEAN_MOTION_DOT":0.00076879,"MEAN_MOTION_DDOT":0}]
